0 COSMOS 1375 DEB
1 16376U 82055Q   13283.35215517  .00000452  00000-0  42505-3 0  7964
2 16376 065.8295 229.6163 0031776 248.7772 192.0147 13.90983035414925
0 COSMOS 1375 DEB
1 16376U 82055Q   13286.37286006  .00000421  00000-0  40033-3 0  7982
2 16376 065.8299 221.9486 0031532 247.6438 197.9281 13.90986085415347
0 COSMOS 1375 DEB
1 16376U 82055Q   13287.45472462  .00000505  00000-0  46763-3 0  7995
2 16376 065.8300 219.2026 0031445 247.2713 215.2460 13.90987103415496
0 COSMOS 1375 DEB
1 16376U 82055Q   13289.10993356  .00000569  00000-0  51812-3 0  8003
2 16376 065.8299 215.0015 0031293 246.6483 223.5829 13.90990091415720
0 COSMOS 1375 DEB
1 16376U 82055Q   13290.19602943  .00000544  00000-0  49841-3 0  8016
2 16376 065.8298 212.2446 0031214 246.2409 262.1352 13.90991373415873
0 COSMOS 1375 DEB
1 16376U 82055Q   13291.20548196  .00000548  00000-0  50143-3 0  8020
2 16376 065.8296 209.6824 0031112 245.8433 276.9256 13.90992423416010
0 COSMOS 1375 DEB
1 16376U 82055Q   13292.20979679  .00000568  00000-0  51737-3 0  8038
2 16376 065.8295 207.1332 0031024 245.4424 265.9993 13.90993459416155
0 COSMOS 1375 DEB
1 16376U 82055Q   13293.27464274  .00000552  00000-0  50439-3 0  8048
2 16376 065.8294 204.4303 0030950 245.0534 198.1466 13.90995136416300
0 COSMOS 1375 DEB
1 16376U 82055Q   13294.85202594  .00000530  00000-0  48702-3 0  8055
2 16376 065.8294 200.4263 0030835 244.4306 176.8501 13.90997580416525
0 COSMOS 1375 DEB
1 16376U 82055Q   13296.16398171  .00000524  00000-0  48255-3 0  8065
2 16376 065.8293 197.0961 0030769 243.9699 266.3865 13.90999125416700
